{
  "type": "FeatureCollection",
  "features": [
    {
      "type": "Feature",
      "properties": {
        "norad_id": 43823,
        "name": "GEO-KOMPSAT-2A",
        "group": "weather",
        "lat": 0.00980479711576031,
        "lon": 95.41575986280826,
        "alt_km": 35786.31413522622,
        "timestamp": "2025-12-06T16:45:42.370422+00:00",
        "meta_object_name": "GEO-KOMPSAT-2A",
        "meta_object_id": "2018-100A",
        "meta_epoch": "2025-12-06T07:25:40.424160",
        "meta_mean_motion": 1.00271869,
        "meta_eccentricity": 3.109e-05,
        "meta_inclination": 0.0602,
        "meta_ra_of_asc_node": 119.7562,
        "meta_arg_of_pericenter": 74.1482,
        "meta_mean_anomaly": 121.1344,
        "meta_ephemeris_type": 0,
        "meta_classification_type": "U",
        "meta_norad_cat_id": 43823,
        "meta_element_set_no": 999,
        "meta_rev_at_epoch": 2569,
        "meta_bstar": 0,
        "meta_mean_motion_dot": -3.36e-06,
        "meta_mean_motion_ddot": 0,
        "tle_line1": "1 43823U 18100A   25340.30949565 -.00000336  00000+0  00000+0 0  9996",
        "tle_line2": "2 43823   0.0602 119.7562 0000310  74.1482 121.1344  1.00271869 25693"
      },
      "geometry": {
        "type": "Point",
        "coordinates": [
          95.41575986280826,
          0.00980479711576031
        ]
      }
    },
    {
      "type": "Feature",
      "properties": {
        "norad_id": 44387,
        "name": "METEOR-M2 2",
        "group": "weather",
        "lat": 15.527404116860344,
        "lon": -42.140776708095345,
        "alt_km": 812.1829214703375,
        "timestamp": "2025-12-06T16:45:42.370441+00:00",
        "meta_object_name": "METEOR-M2 2",
        "meta_object_id": "2019-038A",
        "meta_epoch": "2025-12-06T04:53:10.135392",
        "meta_mean_motion": 14.24287221,
        "meta_eccentricity": 0.00010326,
        "meta_inclination": 98.8966,
        "meta_ra_of_asc_node": 319.8527,
        "meta_arg_of_pericenter": 161.4165,
        "meta_mean_anomaly": 198.7051,
        "meta_ephemeris_type": 0,
        "meta_classification_type": "U",
        "meta_norad_cat_id": 44387,
        "meta_element_set_no": 999,
        "meta_rev_at_epoch": 33382,
        "meta_bstar": 0.00015945614,
        "meta_mean_motion_dot": 3.22e-06,
        "meta_mean_motion_ddot": 0,
        "tle_line1": "1 44387U 19038A   25340.20358953  .00000322  00000+0  15946-3 0  9990",
        "tle_line2": "2 44387  98.8966 319.8527 0001032 161.4165 198.7051 14.24287221333822"
      },
      "geometry": {
        "type": "Point",
        "coordinates": [
          -42.140776708095345,
          15.527404116860344
        ]
      }
    },
    {
      "type": "Feature",
      "properties": {
        "norad_id": 47719,
        "name": "ARKTIKA-M 1",
        "group": "weather",
        "lat": 53.92091711120832,
        "lon": 128.76610193937253,
        "alt_km": 30909.072639296657,
        "timestamp": "2025-12-06T16:45:42.370461+00:00",
        "meta_object_name": "ARKTIKA-M 1",
        "meta_object_id": "2021-016A",
        "meta_epoch": "2025-12-01T02:41:41.634816",
        "meta_mean_motion": 2.00613156,
        "meta_eccentricity": 0.71974708,
        "meta_inclination": 63.1756,
        "meta_ra_of_asc_node": 85.6045,
        "meta_arg_of_pericenter": 269.084,
        "meta_mean_anomaly": 15.7076,
        "meta_ephemeris_type": 0,
        "meta_classification_type": "U",
        "meta_norad_cat_id": 47719,
        "meta_element_set_no": 999,
        "meta_rev_at_epoch": 3481,
        "meta_bstar": 0,
        "meta_mean_motion_dot": -1.2e-07,
        "meta_mean_motion_ddot": 0,
        "tle_line1": "1 47719U 21016A   25335.11228744 -.00000012  00000+0  00000+0 0  9997",
        "tle_line2": "2 47719  63.1756  85.6045 7197470 269.0840  15.7076  2.00613156 34816"
      },
      "geometry": {
        "type": "Point",
        "coordinates": [
          128.76610193937253,
          53.92091711120832
        ]
      }
    },
    {
      "type": "Feature",
      "properties": {
        "norad_id": 49008,
        "name": "FENGYUN 3E",
        "group": "weather",
        "lat": 69.11939676128507,
        "lon": -42.51328828402657,
        "alt_km": 819.280089679788,
        "timestamp": "2025-12-06T16:45:42.370475+00:00",
        "meta_object_name": "FENGYUN 3E",
        "meta_object_id": "2021-062A",
        "meta_epoch": "2025-12-06T04:35:24.377568",
        "meta_mean_motion": 14.1987874,
        "meta_eccentricity": 6.446e-05,
        "meta_inclination": 98.7476,
        "meta_ra_of_asc_node": 340.7901,
        "meta_arg_of_pericenter": 308.5676,
        "meta_mean_anomaly": 51.5443,
        "meta_ephemeris_type": 0,
        "meta_classification_type": "U",
        "meta_norad_cat_id": 49008,
        "meta_element_set_no": 999,
        "meta_rev_at_epoch": 22919,
        "meta_bstar": 5.8237693e-05,
        "meta_mean_motion_dot": 8e-07,
        "meta_mean_motion_ddot": 0,
        "tle_line1": "1 49008U 21062A   25340.19125437  .00000080  00000+0  58238-4 0  9995",
        "tle_line2": "2 49008  98.7476 340.7901 0000644 308.5676  51.5443 14.19878740229191"
      },
      "geometry": {
        "type": "Point",
        "coordinates": [
          -42.51328828402657,
          69.11939676128507
        ]
      }
    },
    {
      "type": "Feature",
      "properties": {
        "norad_id": 51850,
        "name": "GOES 18",
        "group": "weather",
        "lat": 0.002719640713436574,
        "lon": -169.86100812755086,
        "alt_km": 35786.911287697745,
        "timestamp": "2025-12-06T16:45:42.370487+00:00",
        "meta_object_name": "GOES 18",
        "meta_object_id": "2022-021A",
        "meta_epoch": "2025-12-06T07:49:00.715872",
        "meta_mean_motion": 1.00271766,
        "meta_eccentricity": 8.748e-05,
        "meta_inclination": 0.0012,
        "meta_ra_of_asc_node": 226.4931,
        "meta_arg_of_pericenter": 67.4033,
        "meta_mean_anomaly": 121.7224,
        "meta_ephemeris_type": 0,
        "meta_classification_type": "U",
        "meta_norad_cat_id": 51850,
        "meta_element_set_no": 999,
        "meta_rev_at_epoch": 465,
        "meta_bstar": 0,
        "meta_mean_motion_dot": 1.04e-06,
        "meta_mean_motion_ddot": 0,
        "tle_line1": "1 51850U 22021A   25340.32570273  .00000104  00000+0  00000+0 0  9992",
        "tle_line2": "2 51850   0.0012 226.4931 0000874  67.4033 121.7224  1.00271766  4657"
      },
      "geometry": {
        "type": "Point",
        "coordinates": [
          -169.86100812755086,
          0.002719640713436574
        ]
      }
    },
    {
      "type": "Feature",
      "properties": {
        "norad_id": 54234,
        "name": "NOAA 21 (JPSS-2)",
        "group": "weather",
        "lat": 80.00467108911745,
        "lon": -143.7726807972956,
        "alt_km": 818.1343394119285,
        "timestamp": "2025-12-06T16:45:42.370498+00:00",
        "meta_object_name": "NOAA 21 (JPSS-2)",
        "meta_object_id": "2022-150A",
        "meta_epoch": "2025-12-06T06:12:44.483616",
        "meta_mean_motion": 14.19521529,
        "meta_eccentricity": 0.00024444,
        "meta_inclination": 98.7453,
        "meta_ra_of_asc_node": 276.6483,
        "meta_arg_of_pericenter": 50.2263,
        "meta_mean_anomaly": 309.9128,
        "meta_ephemeris_type": 0,
        "meta_classification_type": "U",
        "meta_norad_cat_id": 54234,
        "meta_element_set_no": 999,
        "meta_rev_at_epoch": 15917,
        "meta_bstar": 0.00012604071,
        "meta_mean_motion_dot": 2.22e-06,
        "meta_mean_motion_ddot": 0,
        "tle_line1": "1 54234U 22150A   25340.25884819  .00000222  00000+0  12604-3 0  9998",
        "tle_line2": "2 54234  98.7453 276.6483 0002444  50.2263 309.9128 14.19521529159178"
      },
      "geometry": {
        "type": "Point",
        "coordinates": [
          -143.7726807972956,
          80.00467108911745
        ]
      }
    },
    {
      "type": "Feature",
      "properties": {
        "norad_id": 54743,
        "name": "METEOSAT-12 (MTG-I1)",
        "group": "weather",
        "lat": -0.6511435643208388,
        "lon": -33.08560937599769,
        "alt_km": 35783.852224110786,
        "timestamp": "2025-12-06T16:45:42.370510+00:00",
        "meta_object_name": "METEOSAT-12 (MTG-I1)",
        "meta_object_id": "2022-170C",
        "meta_epoch": "2025-12-06T06:08:38.706720",
        "meta_mean_motion": 1.00274269,
        "meta_eccentricity": 0.00015447,
        "meta_inclination": 0.722,
        "meta_ra_of_asc_node": 30.5247,
        "meta_arg_of_pericenter": 220.4766,
        "meta_mean_anomaly": 276.1989,
        "meta_ephemeris_type": 0,
        "meta_classification_type": "U",
        "meta_norad_cat_id": 54743,
        "meta_element_set_no": 999,
        "meta_rev_at_epoch": 1104,
        "meta_bstar": 0,
        "meta_mean_motion_dot": 1e-08,
        "meta_mean_motion_ddot": 0,
        "tle_line1": "1 54743U 22170C   25340.25600355  .00000001  00000+0  00000+0 0  9994",
        "tle_line2": "2 54743   0.7220  30.5247 0001544 220.4766 276.1989  1.00274269 11047"
      },
      "geometry": {
        "type": "Point",
        "coordinates": [
          -33.08560937599769,
          -0.6511435643208388
        ]
      }
    }
  ]
}